{
  "type": "FeatureCollection",
  "features": [
    {
      "type": "Feature",
      "properties": {
        "norad_id": 34070,
        "name": "COSMOS 2251 DEB",
        "group": "cosmos-2251-debris",
        "lat": 8.657732429615969,
        "lon": 107.29749905906274,
        "alt_km": 650.4359442520226,
        "timestamp": "2025-12-18T13:51:50.079670+00:00",
        "meta_object_name": "COSMOS 2251 DEB",
        "meta_object_id": "1993-036KH",
        "meta_epoch": "2025-12-18T07:25:35.609088",
        "meta_mean_motion": 14.77214408,
        "meta_eccentricity": 0.00183407,
        "meta_inclination": 74.0006,
        "meta_ra_of_asc_node": 105.3204,
        "meta_arg_of_pericenter": 222.0317,
        "meta_mean_anomaly": 161.1675,
        "meta_ephemeris_type": 0,
        "meta_classification_type": "U",
        "meta_norad_cat_id": 34070,
        "meta_element_set_no": 999,
        "meta_rev_at_epoch": 88693,
        "meta_bstar": 0.0021201813,
        "meta_mean_motion_dot": 0.00015062,
        "meta_mean_motion_ddot": 0,
        "tle_line1": "1 34070U 93036KH  25352.30943992  .00015062  00000+0  21202-2 0  9993",
        "tle_line2": "2 34070  74.0006 105.3204 0018340 222.0317 161.1675 14.77214408886930"
      },
      "geometry": {
        "type": "Point",
        "coordinates": [
          107.29749905906274,
          8.657732429615969
        ]
      }
    },
    {
      "type": "Feature",
      "properties": {
        "norad_id": 34114,
        "name": "COSMOS 2251 DEB",
        "group": "cosmos-2251-debris",
        "lat": 35.51582747114669,
        "lon": -159.0001242581247,
        "alt_km": 717.2976120143985,
        "timestamp": "2025-12-18T13:51:50.079681+00:00",
        "meta_object_name": "COSMOS 2251 DEB",
        "meta_object_id": "1993-036KK",
        "meta_epoch": "2025-12-18T05:15:46.105632",
        "meta_mean_motion": 14.56450627,
        "meta_eccentricity": 0.00476559,
        "meta_inclination": 74.0593,
        "meta_ra_of_asc_node": 33.4489,
        "meta_arg_of_pericenter": 26.1133,
        "meta_mean_anomaly": 37.8498,
        "meta_ephemeris_type": 0,
        "meta_classification_type": "U",
        "meta_norad_cat_id": 34114,
        "meta_element_set_no": 999,
        "meta_rev_at_epoch": 87881,
        "meta_bstar": 0.0012591257,
        "meta_mean_motion_dot": 5.656e-05,
        "meta_mean_motion_ddot": 0,
        "tle_line1": "1 34114U 93036KK  25352.21928363  .00005656  00000+0  12591-2 0  9996",
        "tle_line2": "2 34114  74.0593  33.4489 0047655  26.1133  37.8498 14.56450627878818"
      },
      "geometry": {
        "type": "Point",
        "coordinates": [
          -159.0001242581247,
          35.51582747114669
        ]
      }
    },
    {
      "type": "Feature",
      "properties": {
        "norad_id": 34115,
        "name": "COSMOS 2251 DEB",
        "group": "cosmos-2251-debris",
        "lat": 19.34336240446915,
        "lon": -123.79008167946826,
        "alt_km": 613.4510338973387,
        "timestamp": "2025-12-18T13:51:50.079691+00:00",
        "meta_object_name": "COSMOS 2251 DEB",
        "meta_object_id": "1993-036KL",
        "meta_epoch": "2025-12-17T18:18:00.540864",
        "meta_mean_motion": 14.79556772,
        "meta_eccentricity": 0.00287085,
        "meta_inclination": 74.0065,
        "meta_ra_of_asc_node": 232.038,
        "meta_arg_of_pericenter": 54.0554,
        "meta_mean_anomaly": 306.3278,
        "meta_ephemeris_type": 0,
        "meta_classification_type": "U",
        "meta_norad_cat_id": 34115,
        "meta_element_set_no": 999,
        "meta_rev_at_epoch": 89486,
        "meta_bstar": 0.00070168989,
        "meta_mean_motion_dot": 5.259e-05,
        "meta_mean_motion_ddot": 0,
        "tle_line1": "1 34115U 93036KL  25351.76250626  .00005259  00000+0  70169-3 0  9991",
        "tle_line2": "2 34115  74.0065 232.0380 0028708  54.0554 306.3278 14.79556772894861"
      },
      "geometry": {
        "type": "Point",
        "coordinates": [
          -123.79008167946826,
          19.34336240446915
        ]
      }
    },
    {
      "type": "Feature",
      "properties": {
        "norad_id": 34116,
        "name": "COSMOS 2251 DEB",
        "group": "cosmos-2251-debris",
        "lat": 32.060825853619576,
        "lon": -18.561765201207976,
        "alt_km": 715.27648484788,
        "timestamp": "2025-12-18T13:51:50.079702+00:00",
        "meta_object_name": "COSMOS 2251 DEB",
        "meta_object_id": "1993-036KM",
        "meta_epoch": "2025-12-18T05:45:06.725952",
        "meta_mean_motion": 14.53007551,
        "meta_eccentricity": 0.00119072,
        "meta_inclination": 74.0394,
        "meta_ra_of_asc_node": 172.4019,
        "meta_arg_of_pericenter": 248.4594,
        "meta_mean_anomaly": 290.7622,
        "meta_ephemeris_type": 0,
        "meta_classification_type": "U",
        "meta_norad_cat_id": 34116,
        "meta_element_set_no": 999,
        "meta_rev_at_epoch": 88566,
        "meta_bstar": 0.00061687105,
        "meta_mean_motion_dot": 2.521e-05,
        "meta_mean_motion_ddot": 0,
        "tle_line1": "1 34116U 93036KM  25352.23966118  .00002521  00000+0  61687-3 0  9999",
        "tle_line2": "2 34116  74.0394 172.4019 0011907 248.4594 290.7622 14.53007551885664"
      },
      "geometry": {
        "type": "Point",
        "coordinates": [
          -18.561765201207976,
          32.060825853619576
        ]
      }
    },
    {
      "type": "Feature",
      "properties": {
        "norad_id": 34117,
        "name": "COSMOS 2251 DEB",
        "group": "cosmos-2251-debris",
        "lat": 57.77130908671751,
        "lon": 0.039121049068556554,
        "alt_km": 714.5195896421928,
        "timestamp": "2025-12-18T13:51:50.079712+00:00",
        "meta_object_name": "COSMOS 2251 DEB",
        "meta_object_id": "1993-036KN",
        "meta_epoch": "2025-12-18T05:14:42.542880",
        "meta_mean_motion": 14.40033378,
        "meta_eccentricity": 0.00547658,
        "meta_inclination": 74.0399,
        "meta_ra_of_asc_node": 333.7057,
        "meta_arg_of_pericenter": 48.4745,
        "meta_mean_anomaly": 312.1089,
        "meta_ephemeris_type": 0,
        "meta_classification_type": "U",
        "meta_norad_cat_id": 34117,
        "meta_element_set_no": 999,
        "meta_rev_at_epoch": 88202,
        "meta_bstar": 0.00055082037,
        "meta_mean_motion_dot": 1.741e-05,
        "meta_mean_motion_ddot": 0,
        "tle_line1": "1 34117U 93036KN  25352.21854795  .00001741  00000+0  55082-3 0  9990",
        "tle_line2": "2 34117  74.0399 333.7057 0054765  48.4745 312.1089 14.40033378882024"
      },
      "geometry": {
        "type": "Point",
        "coordinates": [
          0.039121049068556554,
          57.77130908671751
        ]
      }
    },
    {
      "type": "Feature",
      "properties": {
        "norad_id": 34118,
        "name": "COSMOS 2251 DEB",
        "group": "cosmos-2251-debris",
        "lat": -7.476675265948651,
        "lon": 59.65348256006238,
        "alt_km": 610.208523576619,
        "timestamp": "2025-12-18T13:51:50.079723+00:00",
        "meta_object_name": "COSMOS 2251 DEB",
        "meta_object_id": "1993-036KP",
        "meta_epoch": "2025-12-18T04:06:39.479328",
        "meta_mean_motion": 14.9413248,
        "meta_eccentricity": 0.0060021,
        "meta_inclination": 73.9522,
        "meta_ra_of_asc_node": 238.3108,
        "meta_arg_of_pericenter": 67.2105,
        "meta_mean_anomaly": 94.9493,
        "meta_ephemeris_type": 0,
        "meta_classification_type": "U",
        "meta_norad_cat_id": 34118,
        "meta_element_set_no": 999,
        "meta_rev_at_epoch": 89257,
        "meta_bstar": 0.0011398926,
        "meta_mean_motion_dot": 0.00012619,
        "meta_mean_motion_ddot": 0,
        "tle_line1": "1 34118U 93036KP  25352.17129027  .00012619  00000+0  11399-2 0  9997",
        "tle_line2": "2 34118  73.9522 238.3108 0060021  67.2105  94.9493 14.94132480892577"
      },
      "geometry": {
        "type": "Point",
        "coordinates": [
          59.65348256006238,
          -7.476675265948651
        ]
      }
    },
    {
      "type": "Feature",
      "properties": {
        "norad_id": 34120,
        "name": "COSMOS 2251 DEB",
        "group": "cosmos-2251-debris",
        "lat": 31.268638525835627,
        "lon": -143.8504914194781,
        "alt_km": 763.6139189678197,
        "timestamp": "2025-12-18T13:51:50.079734+00:00",
        "meta_object_name": "COSMOS 2251 DEB",
        "meta_object_id": "1993-036KR",
        "meta_epoch": "2025-12-18T00:41:08.517120",
        "meta_mean_motion": 13.98689846,
        "meta_eccentricity": 0.01821858,
        "meta_inclination": 73.9906,
        "meta_ra_of_asc_node": 207.0598,
        "meta_arg_of_pericenter": 33.5686,
        "meta_mean_anomaly": 115.4328,
        "meta_ephemeris_type": 0,
        "meta_classification_type": "U",
        "meta_norad_cat_id": 34120,
        "meta_element_set_no": 999,
        "meta_rev_at_epoch": 86054,
        "meta_bstar": 0.00029730752,
        "meta_mean_motion_dot": 4.69e-06,
        "meta_mean_motion_ddot": 0,
        "tle_line1": "1 34120U 93036KR  25352.02857080  .00000469  00000+0  29731-3 0  9991",
        "tle_line2": "2 34120  73.9906 207.0598 0182185  33.5686 115.4328 13.98689846860542"
      },
      "geometry": {
        "type": "Point",
        "coordinates": [
          -143.8504914194781,
          31.268638525835627
        ]
      }
    }
  ]
}